{"type": "FeatureCollection", "features": [ {"type": "Feature", "properties": {"norad_id": 67001, "name": "2025-292J", "group": "last-30-days", "lat": -82.32091418085518, "lon": 162.66267562201995, "alt_km": 552.5130753007352, "timestamp": "2025-12-22T04:03:37.889919+00:00", "meta": {"OBJECT_NAME": "2025-292J", "OBJECT_ID": "2025-292J", "EPOCH": "2025-12-21T17:17:17.030400", "MEAN_MOTION": 15.04390014, "ECCENTRICITY": 0.0014576, "INCLINATION": 97.6551, "RA_OF_ASC_NODE": 68.1861, "ARG_OF_PERICENTER": 235.3527, "MEAN_ANOMALY": 124.6326, "EPHEMERIS_TYPE": 0, "CLASSIFICATION_TYPE": "U", "NORAD_CAT_ID": 67001, "ELEMENT_SET_NO": 999, "REV_AT_EPOCH": 174, "BSTAR": 0.00029064, "MEAN_MOTION_DOT": 4.004e-05, "MEAN_MOTION_DDOT": 0}, "tle": {"line1": "1 67001U 25292J   25355.72033600  .00004004  00000+0  29064-3 0  9996", "line2": "2 67001  97.6551  68.1861 0014576 235.3527 124.6326 15.04390014  1742"}}, "geometry": {"type": "Point", "coordinates": [162.66267562201995, -82.32091418085518]}}, {"type": "Feature", "properties": {"norad_id": 67002, "name": "ZK-1A R/B", "group": "last-30-days", "lat": -40.96463687093068, "lon": 76.48568392839789, "alt_km": 262.8163802938225, "timestamp": "2025-12-22T04:03:37.889929+00:00", "meta": {"OBJECT_NAME": "ZK-1A R/B", "OBJECT_ID": "2025-292K", "EPOCH": "2025-12-21T17:26:13.601184", "MEAN_MOTION": 15.57360311, "ECCENTRICITY": 0.0209989, "INCLINATION": 97.7206, "RA_OF_ASC_NODE": 69.2415, "ARG_OF_PERICENTER": 332.852, "MEAN_ANOMALY": 26.1874, "EPHEMERIS_TYPE": 0, "CLASSIFICATION_TYPE": "U", "NORAD_CAT_ID": 67002, "ELEMENT_SET_NO": 999, "REV_AT_EPOCH": 179, "BSTAR": 0.00072365, "MEAN_MOTION_DOT": 0.0015277, "MEAN_MOTION_DDOT": 8.3833e-06}, "tle": {"line1": "1 67002U 25292K   25355.72654631  .00152770  83833-5  72365-3 0  9997", "line2": "2 67002  97.7206  69.2415 0209989 332.8520  26.1874 15.57360311  1792"}}, "geometry": {"type": "Point", "coordinates": [76.48568392839789, -40.96463687093068]}}, {"type": "Feature", "properties": {"norad_id": 67003, "name": "STARLINK-35660", "group": "last-30-days", "lat": 25.539842468470347, "lon": -53.54299667457113, "alt_km": 305.61905026783825, "timestamp": "2025-12-22T04:03:37.889940+00:00", "meta": {"OBJECT_NAME": "STARLINK-35660", "OBJECT_ID": "2025-293A", "EPOCH": "2025-12-21T20:00:01.999008", "MEAN_MOTION": 15.89767341, "ECCENTRICITY": 0.0003605, "INCLINATION": 69.994, "RA_OF_ASC_NODE": 297.4019, "ARG_OF_PERICENTER": 266.5986, "MEAN_ANOMALY": 359.9764, "EPHEMERIS_TYPE": 0, "CLASSIFICATION_TYPE": "U", "NORAD_CAT_ID": 67003, "ELEMENT_SET_NO": 999, "REV_AT_EPOCH": 163, "BSTAR": -0.0052676, "MEAN_MOTION_DOT": -0.01554088, "MEAN_MOTION_DDOT": 0.00066732}, "tle": {"line1": "1 67003U 25293A   25355.83335647 -.01554088  66732-3 -52676-2 0  9994", "line2": "2 67003  69.9940 297.4019 0003605 266.5986 359.9764 15.89767341  1637"}}, "geometry": {"type": "Point", "coordinates": [-53.54299667457113, 25.539842468470347]}}, {"type": "Feature", "properties": {"norad_id": 67004, "name": "STARLINK-35913", "group": "last-30-days", "lat": 27.648507972801188, "lon": -52.56831971561958, "alt_km": 305.9349330487612, "timestamp": "2025-12-22T04:03:37.889950+00:00", "meta": {"OBJECT_NAME": "STARLINK-35913", "OBJECT_ID": "2025-293B", "EPOCH": "2025-12-21T20:00:01.999008", "MEAN_MOTION": 15.89738803, "ECCENTRICITY": 0.0004332, "INCLINATION": 69.9939, "RA_OF_ASC_NODE": 297.399, "ARG_OF_PERICENTER": 260.1595, "MEAN_ANOMALY": 8.7177, "EPHEMERIS_TYPE": 0, "CLASSIFICATION_TYPE": "U", "NORAD_CAT_ID": 67004, "ELEMENT_SET_NO": 999, "REV_AT_EPOCH": 163, "BSTAR": -0.0051917, "MEAN_MOTION_DOT": -0.01530147, "MEAN_MOTION_DDOT": 0.00064827}, "tle": {"line1": "1 67004U 25293B   25355.83335647 -.01530147  64827-3 -51917-2 0  9995", "line2": "2 67004  69.9939 297.3990 0004332 260.1595   8.7177 15.89738803  1635"}}, "geometry": {"type": "Point", "coordinates": [-52.56831971561958, 27.648507972801188]}}, {"type": "Feature", "properties": {"norad_id": 67005, "name": "STARLINK-36148", "group": "last-30-days", "lat": 29.88556514550294, "lon": -51.48800305973008, "alt_km": 305.75349937373994, "timestamp": "2025-12-22T04:03:37.889962+00:00", "meta": {"OBJECT_NAME": "STARLINK-36148", "OBJECT_ID": "2025-293C", "EPOCH": "2025-12-21T20:00:01.999008", "MEAN_MOTION": 15.89773109, "ECCENTRICITY": 0.0004388, "INCLINATION": 69.9941, "RA_OF_ASC_NODE": 297.3965, "ARG_OF_PERICENTER": 259.1332, "MEAN_ANOMALY": 12.16, "EPHEMERIS_TYPE": 0, "CLASSIFICATION_TYPE": "U", "NORAD_CAT_ID": 67005, "ELEMENT_SET_NO": 999, "REV_AT_EPOCH": 163, "BSTAR": -0.0054293, "MEAN_MOTION_DOT": -0.01602129, "MEAN_MOTION_DDOT": 0.00070599}, "tle": {"line1": "1 67005U 25293C   25355.83335647 -.01602129  70599-3 -54293-2 0  9999", "line2": "2 67005  69.9941 297.3965 0004388 259.1332  12.1600 15.89773109  1637"}}, "geometry": {"type": "Point", "coordinates": [-51.48800305973008, 29.88556514550294]}}, {"type": "Feature", "properties": {"norad_id": 67006, "name": "STARLINK-36156", "group": "last-30-days", "lat": 35.06460301767592, "lon": -48.76463172301501, "alt_km": 305.19789521655366, "timestamp": "2025-12-22T04:03:37.889975+00:00", "meta": {"OBJECT_NAME": "STARLINK-36156", "OBJECT_ID": "2025-293D", "EPOCH": "2025-12-21T20:00:01.999008", "MEAN_MOTION": 15.89812646, "ECCENTRICITY": 0.0004437, "INCLINATION": 69.994, "RA_OF_ASC_NODE": 297.3892, "ARG_OF_PERICENTER": 261.3503, "MEAN_ANOMALY": 15.616, "EPHEMERIS_TYPE": 0, "CLASSIFICATION_TYPE": "U", "NORAD_CAT_ID": 67006, "ELEMENT_SET_NO": 999, "REV_AT_EPOCH": 163, "BSTAR": -0.0059249, "MEAN_MOTION_DOT": -0.01750074, "MEAN_MOTION_DDOT": 0.00083182}, "tle": {"line1": "1 67006U 25293D   25355.83335647 -.01750074  83182-3 -59249-2 0  9991", "line2": "2 67006  69.9940 297.3892 0004437 261.3503  15.6160 15.89812646  1635"}}, "geometry": {"type": "Point", "coordinates": [-48.76463172301501, 35.06460301767592]}}, {"type": "Feature", "properties": {"norad_id": 67007, "name": "STARLINK-36123", "group": "last-30-days", "lat": 32.71649577860642, "lon": -50.0425195328892, "alt_km": 305.12255062890927, "timestamp": "2025-12-22T04:03:37.889986+00:00", "meta": {"OBJECT_NAME": "STARLINK-36123", "OBJECT_ID": "2025-293E", "EPOCH": "2025-12-21T20:00:01.999008", "MEAN_MOTION": 15.89801676, "ECCENTRICITY": 0.0003981, "INCLINATION": 69.9939, "RA_OF_ASC_NODE": 297.3923, "ARG_OF_PERICENTER": 263.8681, "MEAN_ANOMALY": 10.5175, "EPHEMERIS_TYPE": 0, "CLASSIFICATION_TYPE": "U", "NORAD_CAT_ID": 67007, "ELEMENT_SET_NO": 999, "REV_AT_EPOCH": 163, "BSTAR": -0.0057522, "MEAN_MOTION_DOT": -0.01698444, "MEAN_MOTION_DDOT": 0.00078679}, "tle": {"line1": "1 67007U 25293E   25355.83335647 -.01698444  78679-3 -57522-2 0  9991", "line2": "2 67007  69.9939 297.3923 0003981 263.8681  10.5175 15.89801676  1637"}}, "geometry": {"type": "Point", "coordinates": [-50.0425195328892, 32.71649577860642]}}, {"type": "Feature", "properties": {"norad_id": 67008, "name": "STARLINK-36163", "group": "last-30-days", "lat": 38.08119548510203, "lon": -46.99702266925301, "alt_km": 304.9830282119301, "timestamp": "2025-12-22T04:03:37.889996+00:00", "meta": {"OBJECT_NAME": "STARLINK-36163", "OBJECT_ID": "2025-293F", "EPOCH": "2025-12-21T20:00:01.999008", "MEAN_MOTION": 15.89826663, "ECCENTRICITY": 0.000454, "INCLINATION": 69.9941, "RA_OF_ASC_NODE": 297.3855, "ARG_OF_PERICENTER": 262.051, "MEAN_ANOMALY": 18.2683, "EPHEMERIS_TYPE": 0, "CLASSIFICATION_TYPE": "U", "NORAD_CAT_ID": 67008, "ELEMENT_SET_NO": 999, "REV_AT_EPOCH": 163, "BSTAR": -0.0062533, "MEAN_MOTION_DOT": -0.01847229, "MEAN_MOTION_DDOT": 0.00091983}, "tle": {"line1": "1 67008U 25293F   25355.83335647 -.01847229  91983-3 -62533-2 0  9990", "line2": "2 67008  69.9941 297.3855 0004540 262.0510  18.2683 15.89826663  1631"}}, "geometry": {"type": "Point", "coordinates": [-46.99702266925301, 38.08119548510203]}}, {"type": "Feature", "properties": {"norad_id": 67009, "name": "STARLINK-36118", "group": "last-30-days", "lat": 40.57380600011819, "lon": -45.408825413813965, "alt_km": 304.25832805826485, "timestamp": "2025-12-22T04:03:37.890006+00:00", "meta": {"OBJECT_NAME": "STARLINK-36118", "OBJECT_ID": "2025-293G", "EPOCH": "2025-12-21T20:00:01.999008", "MEAN_MOTION": 15.89838911, "ECCENTRICITY": 0.0003935, "INCLINATION": 69.9939, "RA_OF_ASC_NODE": 297.3822, "ARG_OF_PERICENTER": 269.0898, "MEAN_ANOMALY": 14.0304, "EPHEMERIS_TYPE": 0, "CLASSIFICATION_TYPE": "U", "NORAD_CAT_ID": 67009, "ELEMENT_SET_NO": 999, "REV_AT_EPOCH": 157, "BSTAR": -0.0065775, "MEAN_MOTION_DOT": -0.01942544, "MEAN_MOTION_DDOT": 0.0010105}, "tle": {"line1": "1 67009U 25293G   25355.83335647 -.01942544  10105-2 -65775-2 0  9994", "line2": "2 67009  69.9939 297.3822 0003935 269.0898  14.0304 15.89838911  1572"}}, "geometry": {"type": "Point", "coordinates": [-45.408825413813965, 40.57380600011819]}}, {"type": "Feature", "properties": {"norad_id": 67010, "name": "STARLINK-36189", "group": "last-30-days", "lat": 44.931940318672744, "lon": -42.27969144884589, "alt_km": 304.0917375998797, "timestamp": "2025-12-22T04:03:37.890016+00:00", "meta": {"OBJECT_NAME": "STARLINK-36189", "OBJECT_ID": "2025-293H", "EPOCH": "2025-12-21T20:00:01.999008", "MEAN_MOTION": 15.89802277, "ECCENTRICITY": 0.0004281, "INCLINATION": 69.9938, "RA_OF_ASC_NODE": 297.3763, "ARG_OF_PERICENTER": 264.3468, "MEAN_ANOMALY": 23.7232, "EPHEMERIS_TYPE": 0, "CLASSIFICATION_TYPE": "U", "NORAD_CAT_ID": 67010, "ELEMENT_SET_NO": 999, "REV_AT_EPOCH": 163, "BSTAR": -0.0064308, "MEAN_MOTION_DOT": -0.01896506, "MEAN_MOTION_DDOT": 0.00096586}, "tle": {"line1": "1 67010U 25293H   25355.83335647 -.01896506  96586-3 -64308-2 0  9991", "line2": "2 67010  69.9938 297.3763 0004281 264.3468  23.7232 15.89802277  1633"}}, "geometry": {"type": "Point", "coordinates": [-42.27969144884589, 44.931940318672744]}}]}